[{"OBJECT_NAME":"TIANMU-1 22","OBJECT_ID":"2023-208D","EPOCH":"2026-03-09T22:39:05.738688","MEAN_MOTION":15.29457749,"ECCENTRICITY":0.00031332,"INCLINATION":97.4379,"RA_OF_ASC_NODE":184.9419,"ARG_OF_PERICENTER":351.9312,"MEAN_ANOMALY":8.1877,"EPHEMERIS_TYPE":0,"CLASSIFICATION_TYPE":"U","NORAD_CAT_ID":58663,"ELEMENT_SET_NO":999,"REV_AT_EPOCH":12215,"BSTAR":0.00038239675,"MEAN_MOTION_DOT":0.00010851,"MEAN_MOTION_DDOT":0},{"OBJECT_NAME":"STARLINK-31225","OBJECT_ID":"2024-038T","EPOCH":"2026-03-09T05:58:28.148160","MEAN_MOTION":15.27577385,"ECCENTRICITY":0.00024757,"INCLINATION":43.0027,"RA_OF_ASC_NODE":25.772,"ARG_OF_PERICENTER":250.7045,"MEAN_ANOMALY":109.3539,"EPHEMERIS_TYPE":0,"CLASSIFICATION_TYPE":"U","NORAD_CAT_ID":59040,"ELEMENT_SET_NO":999,"REV_AT_EPOCH":11462,"BSTAR":-7.7412191e-5,"MEAN_MOTION_DOT":-2.392e-5,"MEAN_MOTION_DDOT":0}]
